[{"OBJECT_NAME":"YAOGAN-36 04C","OBJECT_ID":"2022-171E","EPOCH":"2026-03-09T18:55:44.889600","MEAN_MOTION":15.29852307,"ECCENTRICITY":0.00066848,"INCLINATION":34.9797,"RA_OF_ASC_NODE":96.6578,"ARG_OF_PERICENTER":275.3761,"MEAN_ANOMALY":84.6192,"EPHEMERIS_TYPE":0,"CLASSIFICATION_TYPE":"U","NORAD_CAT_ID":54750,"ELEMENT_SET_NO":999,"REV_AT_EPOCH":18024,"BSTAR":0.00054591902,"MEAN_MOTION_DOT":0.00016196,"MEAN_MOTION_DDOT":0},{"OBJECT_NAME":"STARLINK-30804","OBJECT_ID":"2023-166F","EPOCH":"2026-03-09T17:43:38.831232","MEAN_MOTION":15.30175871,"ECCENTRICITY":0.00011553,"INCLINATION":53.1611,"RA_OF_ASC_NODE":219.6057,"ARG_OF_PERICENTER":81.157,"MEAN_ANOMALY":278.9562,"EPHEMERIS_TYPE":0,"CLASSIFICATION_TYPE":"U","NORAD_CAT_ID":58155,"ELEMENT_SET_NO":999,"REV_AT_EPOCH":13318,"BSTAR":-7.0545667e-5,"MEAN_MOTION_DOT":-2.446e-5,"MEAN_MOTION_DDOT":0}]
